<?xml version="1.0" encoding="UTF-8"?>
<gpx version="1.1" creator="ninebot-phone-fetch" xmlns="http://www.topografix.com/GPX/1/1">
  <trk><name>Ninebot 2026-07-07_0953 9.5km</name><trkseg>
    <trkpt lat="40.09552754" lon="116.27680177">
      <ele>37.7</ele>
      <time>2026-07-07T01:53:50Z</time>
      <extensions><speed_kmh>0.1</speed_kmh></extensions>
    </trkpt>
    <trkpt lat="40.09549595" lon="116.27637052">
      <ele>37.1</ele>
      <time>2026-07-07T01:53:56Z</time>
      <extensions><speed_kmh>27.0</speed_kmh></extensions>
    </trkpt>
    <trkpt lat="40.09532231" lon="116.27590133">
      <ele>37.1</ele>
      <time>2026-07-07T01:54:03Z</time>
      <extensions><speed_kmh>34.9</speed_kmh></extensions>
    </trkpt>
    <trkpt lat="40.09512786" lon="116.27534633">
      <ele>36.0</ele>
      <time>2026-07-07T01:54:10Z</time>
      <extensions><speed_kmh>34.8</speed_kmh></extensions>
    </trkpt>
    <trkpt lat="40.09493330" lon="116.27479702">
      <ele>35.6</ele>
      <time>2026-07-07T01:54:17Z</time>
      <extensions><speed_kmh>31.6</speed_kmh></extensions>
    </trkpt>
    <trkpt lat="40.09468961" lon="116.27435657">
      <ele>34.5</ele>
      <time>2026-07-07T01:54:24Z</time>
      <extensions><speed_kmh>24.3</speed_kmh></extensions>
    </trkpt>
    <trkpt lat="40.09435127" lon="116.27459264">
      <ele>33.9</ele>
      <time>2026-07-07T01:54:31Z</time>
      <extensions><speed_kmh>35.7</speed_kmh></extensions>
    </trkpt>
    <trkpt lat="40.09400869" lon="116.27504304">
      <ele>33.7</ele>
      <time>2026-07-07T01:54:38Z</time>
      <extensions><speed_kmh>36.9</speed_kmh></extensions>
    </trkpt>
    <trkpt lat="40.09371138" lon="116.27542412">
      <ele>33.2</ele>
      <time>2026-07-07T01:54:44Z</time>
      <extensions><speed_kmh>37.1</speed_kmh></extensions>
    </trkpt>
    <trkpt lat="40.09335888" lon="116.27587840">
      <ele>33.2</ele>
      <time>2026-07-07T01:54:51Z</time>
      <extensions><speed_kmh>36.8</speed_kmh></extensions>
    </trkpt>
    <trkpt lat="40.09307195" lon="116.27626276">
      <ele>33.5</ele>
      <time>2026-07-07T01:54:58Z</time>
      <extensions><speed_kmh>36.9</speed_kmh></extensions>
    </trkpt>
    <trkpt lat="40.09273003" lon="116.27672891">
      <ele>33.5</ele>
      <time>2026-07-07T01:55:05Z</time>
      <extensions><speed_kmh>37.0</speed_kmh></extensions>
    </trkpt>
    <trkpt lat="40.09238650" lon="116.27719416">
      <ele>33.3</ele>
      <time>2026-07-07T01:55:12Z</time>
      <extensions><speed_kmh>36.8</speed_kmh></extensions>
    </trkpt>
    <trkpt lat="40.09204088" lon="116.27764961">
      <ele>33.3</ele>
      <time>2026-07-07T01:55:19Z</time>
      <extensions><speed_kmh>36.7</speed_kmh></extensions>
    </trkpt>
    <trkpt lat="40.09181232" lon="116.27795973">
      <ele>33.2</ele>
      <time>2026-07-07T01:55:26Z</time>
      <extensions><speed_kmh>36.9</speed_kmh></extensions>
    </trkpt>
    <trkpt lat="40.09141538" lon="116.27850924">
      <ele>33.2</ele>
      <time>2026-07-07T01:55:33Z</time>
      <extensions><speed_kmh>37.0</speed_kmh></extensions>
    </trkpt>
    <trkpt lat="40.09105383" lon="116.27864630">
      <ele>32.8</ele>
      <time>2026-07-07T01:55:39Z</time>
      <extensions><speed_kmh>28.0</speed_kmh></extensions>
    </trkpt>
    <trkpt lat="40.09083934" lon="116.27816697">
      <ele>33.4</ele>
      <time>2026-07-07T01:55:46Z</time>
      <extensions><speed_kmh>34.1</speed_kmh></extensions>
    </trkpt>
    <trkpt lat="40.09061946" lon="116.27766776">
      <ele>33.1</ele>
      <time>2026-07-07T01:55:53Z</time>
      <extensions><speed_kmh>27.3</speed_kmh></extensions>
    </trkpt>
    <trkpt lat="40.09041506" lon="116.27717982">
      <ele>32.6</ele>
      <time>2026-07-07T01:56:00Z</time>
      <extensions><speed_kmh>31.2</speed_kmh></extensions>
    </trkpt>
    <trkpt lat="40.09019916" lon="116.27669108">
      <ele>32.7</ele>
      <time>2026-07-07T01:56:07Z</time>
      <extensions><speed_kmh>32.3</speed_kmh></extensions>
    </trkpt>
    <trkpt lat="40.08998288" lon="116.27617975">
      <ele>32.9</ele>
      <time>2026-07-07T01:56:14Z</time>
      <extensions><speed_kmh>36.0</speed_kmh></extensions>
    </trkpt>
    <trkpt lat="40.08977626" lon="116.27559950">
      <ele>32.7</ele>
      <time>2026-07-07T01:56:21Z</time>
      <extensions><speed_kmh>37.8</speed_kmh></extensions>
    </trkpt>
    <trkpt lat="40.08959515" lon="116.27509513">
      <ele>31.0</ele>
      <time>2026-07-07T01:56:28Z</time>
      <extensions><speed_kmh>38.7</speed_kmh></extensions>
    </trkpt>
    <trkpt lat="40.08944265" lon="116.27457168">
      <ele>29.1</ele>
      <time>2026-07-07T01:56:34Z</time>
      <extensions><speed_kmh>38.5</speed_kmh></extensions>
    </trkpt>
    <trkpt lat="40.08926633" lon="116.27405680">
      <ele>27.3</ele>
      <time>2026-07-07T01:56:41Z</time>
      <extensions><speed_kmh>38.5</speed_kmh></extensions>
    </trkpt>
    <trkpt lat="40.08913580" lon="116.27364090">
      <ele>26.5</ele>
      <time>2026-07-07T01:56:48Z</time>
      <extensions><speed_kmh>38.1</speed_kmh></extensions>
    </trkpt>
    <trkpt lat="40.08898926" lon="116.27312471">
      <ele>26.8</ele>
      <time>2026-07-07T01:56:55Z</time>
      <extensions><speed_kmh>36.0</speed_kmh></extensions>
    </trkpt>
    <trkpt lat="40.08882378" lon="116.27255336">
      <ele>29.6</ele>
      <time>2026-07-07T01:57:02Z</time>
      <extensions><speed_kmh>35.1</speed_kmh></extensions>
    </trkpt>
    <trkpt lat="40.08864879" lon="116.27198470">
      <ele>31.1</ele>
      <time>2026-07-07T01:57:09Z</time>
      <extensions><speed_kmh>35.0</speed_kmh></extensions>
    </trkpt>
    <trkpt lat="40.08846887" lon="116.27142512">
      <ele>31.4</ele>
      <time>2026-07-07T01:57:16Z</time>
      <extensions><speed_kmh>35.0</speed_kmh></extensions>
    </trkpt>
    <trkpt lat="40.08827995" lon="116.27086722">
      <ele>33.3</ele>
      <time>2026-07-07T01:57:23Z</time>
      <extensions><speed_kmh>35.0</speed_kmh></extensions>
    </trkpt>
    <trkpt lat="40.08810782" lon="116.27030032">
      <ele>34.0</ele>
      <time>2026-07-07T01:57:29Z</time>
      <extensions><speed_kmh>31.2</speed_kmh></extensions>
    </trkpt>
    <trkpt lat="40.08793756" lon="116.26975558">
      <ele>33.6</ele>
      <time>2026-07-07T01:57:36Z</time>
      <extensions><speed_kmh>26.8</speed_kmh></extensions>
    </trkpt>
    <trkpt lat="40.08777946" lon="116.26914119">
      <ele>33.9</ele>
      <time>2026-07-07T01:57:43Z</time>
      <extensions><speed_kmh>22.9</speed_kmh></extensions>
    </trkpt>
    <trkpt lat="40.08759195" lon="116.26862370">
      <ele>33.5</ele>
      <time>2026-07-07T01:57:50Z</time>
      <extensions><speed_kmh>25.2</speed_kmh></extensions>
    </trkpt>
    <trkpt lat="40.08740441" lon="116.26813826">
      <ele>33.5</ele>
      <time>2026-07-07T01:57:57Z</time>
      <extensions><speed_kmh>28.6</speed_kmh></extensions>
    </trkpt>
    <trkpt lat="40.08724975" lon="116.26766221">
      <ele>33.8</ele>
      <time>2026-07-07T01:58:04Z</time>
      <extensions><speed_kmh>31.0</speed_kmh></extensions>
    </trkpt>
    <trkpt lat="40.08710019" lon="116.26717156">
      <ele>33.4</ele>
      <time>2026-07-07T01:58:11Z</time>
      <extensions><speed_kmh>28.6</speed_kmh></extensions>
    </trkpt>
    <trkpt lat="40.08692481" lon="116.26658757">
      <ele>32.5</ele>
      <time>2026-07-07T01:58:18Z</time>
      <extensions><speed_kmh>27.0</speed_kmh></extensions>
    </trkpt>
    <trkpt lat="40.08677642" lon="116.26610549">
      <ele>31.7</ele>
      <time>2026-07-07T01:58:24Z</time>
      <extensions><speed_kmh>23.7</speed_kmh></extensions>
    </trkpt>
    <trkpt lat="40.08661912" lon="116.26564737">
      <ele>31.5</ele>
      <time>2026-07-07T01:58:31Z</time>
      <extensions><speed_kmh>23.9</speed_kmh></extensions>
    </trkpt>
    <trkpt lat="40.08644330" lon="116.26506994">
      <ele>30.6</ele>
      <time>2026-07-07T01:58:38Z</time>
      <extensions><speed_kmh>24.9</speed_kmh></extensions>
    </trkpt>
    <trkpt lat="40.08634343" lon="116.26453406">
      <ele>30.3</ele>
      <time>2026-07-07T01:58:45Z</time>
      <extensions><speed_kmh>25.5</speed_kmh></extensions>
    </trkpt>
    <trkpt lat="40.08622196" lon="116.26399297">
      <ele>30.2</ele>
      <time>2026-07-07T01:58:52Z</time>
      <extensions><speed_kmh>28.8</speed_kmh></extensions>
    </trkpt>
    <trkpt lat="40.08602291" lon="116.26340260">
      <ele>30.0</ele>
      <time>2026-07-07T01:58:59Z</time>
      <extensions><speed_kmh>7.7</speed_kmh></extensions>
    </trkpt>
    <trkpt lat="40.08580295" lon="116.26364606">
      <ele>32.6</ele>
      <time>2026-07-07T01:59:06Z</time>
      <extensions><speed_kmh>27.8</speed_kmh></extensions>
    </trkpt>
    <trkpt lat="40.08552897" lon="116.26403802">
      <ele>30.2</ele>
      <time>2026-07-07T01:59:13Z</time>
      <extensions><speed_kmh>34.9</speed_kmh></extensions>
    </trkpt>
    <trkpt lat="40.08522652" lon="116.26452021">
      <ele>30.2</ele>
      <time>2026-07-07T01:59:19Z</time>
      <extensions><speed_kmh>34.9</speed_kmh></extensions>
    </trkpt>
    <trkpt lat="40.08497043" lon="116.26503715">
      <ele>31.6</ele>
      <time>2026-07-07T01:59:26Z</time>
      <extensions><speed_kmh>34.6</speed_kmh></extensions>
    </trkpt>
    <trkpt lat="40.08468826" lon="116.26551122">
      <ele>33.5</ele>
      <time>2026-07-07T01:59:33Z</time>
      <extensions><speed_kmh>34.6</speed_kmh></extensions>
    </trkpt>
    <trkpt lat="40.08439149" lon="116.26599298">
      <ele>33.9</ele>
      <time>2026-07-07T01:59:40Z</time>
      <extensions><speed_kmh>34.9</speed_kmh></extensions>
    </trkpt>
    <trkpt lat="40.08412498" lon="116.26650010">
      <ele>35.5</ele>
      <time>2026-07-07T01:59:47Z</time>
      <extensions><speed_kmh>35.6</speed_kmh></extensions>
    </trkpt>
    <trkpt lat="40.08386363" lon="116.26703907">
      <ele>35.7</ele>
      <time>2026-07-07T01:59:54Z</time>
      <extensions><speed_kmh>35.8</speed_kmh></extensions>
    </trkpt>
    <trkpt lat="40.08360859" lon="116.26755726">
      <ele>35.0</ele>
      <time>2026-07-07T02:00:01Z</time>
      <extensions><speed_kmh>34.2</speed_kmh></extensions>
    </trkpt>
    <trkpt lat="40.08334717" lon="116.26804885">
      <ele>34.2</ele>
      <time>2026-07-07T02:00:08Z</time>
      <extensions><speed_kmh>34.7</speed_kmh></extensions>
    </trkpt>
    <trkpt lat="40.08306784" lon="116.26854224">
      <ele>33.8</ele>
      <time>2026-07-07T02:00:14Z</time>
      <extensions><speed_kmh>35.0</speed_kmh></extensions>
    </trkpt>
    <trkpt lat="40.08277961" lon="116.26902822">
      <ele>33.0</ele>
      <time>2026-07-07T02:00:21Z</time>
      <extensions><speed_kmh>34.9</speed_kmh></extensions>
    </trkpt>
    <trkpt lat="40.08249248" lon="116.26950680">
      <ele>32.8</ele>
      <time>2026-07-07T02:00:28Z</time>
      <extensions><speed_kmh>34.1</speed_kmh></extensions>
    </trkpt>
    <trkpt lat="40.08220824" lon="116.26998807">
      <ele>32.9</ele>
      <time>2026-07-07T02:00:35Z</time>
      <extensions><speed_kmh>34.7</speed_kmh></extensions>
    </trkpt>
    <trkpt lat="40.08192258" lon="116.27047322">
      <ele>32.8</ele>
      <time>2026-07-07T02:00:42Z</time>
      <extensions><speed_kmh>35.1</speed_kmh></extensions>
    </trkpt>
    <trkpt lat="40.08163262" lon="116.27095377">
      <ele>32.9</ele>
      <time>2026-07-07T02:00:49Z</time>
      <extensions><speed_kmh>35.3</speed_kmh></extensions>
    </trkpt>
    <trkpt lat="40.08134415" lon="116.27144279">
      <ele>32.6</ele>
      <time>2026-07-07T02:00:56Z</time>
      <extensions><speed_kmh>35.2</speed_kmh></extensions>
    </trkpt>
    <trkpt lat="40.08105258" lon="116.27192732">
      <ele>32.3</ele>
      <time>2026-07-07T02:01:02Z</time>
      <extensions><speed_kmh>35.3</speed_kmh></extensions>
    </trkpt>
    <trkpt lat="40.08075969" lon="116.27240853">
      <ele>31.9</ele>
      <time>2026-07-07T02:01:09Z</time>
      <extensions><speed_kmh>34.5</speed_kmh></extensions>
    </trkpt>
    <trkpt lat="40.08045123" lon="116.27287186">
      <ele>32.4</ele>
      <time>2026-07-07T02:01:16Z</time>
      <extensions><speed_kmh>34.8</speed_kmh></extensions>
    </trkpt>
    <trkpt lat="40.08013147" lon="116.27331630">
      <ele>32.0</ele>
      <time>2026-07-07T02:01:23Z</time>
      <extensions><speed_kmh>34.8</speed_kmh></extensions>
    </trkpt>
    <trkpt lat="40.07979702" lon="116.27375444">
      <ele>31.9</ele>
      <time>2026-07-07T02:01:30Z</time>
      <extensions><speed_kmh>34.8</speed_kmh></extensions>
    </trkpt>
    <trkpt lat="40.07944889" lon="116.27417240">
      <ele>32.3</ele>
      <time>2026-07-07T02:01:37Z</time>
      <extensions><speed_kmh>35.1</speed_kmh></extensions>
    </trkpt>
    <trkpt lat="40.07909286" lon="116.27458027">
      <ele>32.3</ele>
      <time>2026-07-07T02:01:44Z</time>
      <extensions><speed_kmh>35.1</speed_kmh></extensions>
    </trkpt>
    <trkpt lat="40.07871996" lon="116.27495317">
      <ele>32.1</ele>
      <time>2026-07-07T02:01:51Z</time>
      <extensions><speed_kmh>35.0</speed_kmh></extensions>
    </trkpt>
    <trkpt lat="40.07834557" lon="116.27532816">
      <ele>31.6</ele>
      <time>2026-07-07T02:01:57Z</time>
      <extensions><speed_kmh>34.9</speed_kmh></extensions>
    </trkpt>
    <trkpt lat="40.07797196" lon="116.27570525">
      <ele>31.9</ele>
      <time>2026-07-07T02:02:04Z</time>
      <extensions><speed_kmh>34.9</speed_kmh></extensions>
    </trkpt>
    <trkpt lat="40.07759306" lon="116.27607324">
      <ele>32.2</ele>
      <time>2026-07-07T02:02:11Z</time>
      <extensions><speed_kmh>34.9</speed_kmh></extensions>
    </trkpt>
    <trkpt lat="40.07721715" lon="116.27644292">
      <ele>32.2</ele>
      <time>2026-07-07T02:02:18Z</time>
      <extensions><speed_kmh>34.8</speed_kmh></extensions>
    </trkpt>
    <trkpt lat="40.07683925" lon="116.27680481">
      <ele>31.7</ele>
      <time>2026-07-07T02:02:25Z</time>
      <extensions><speed_kmh>35.0</speed_kmh></extensions>
    </trkpt>
    <trkpt lat="40.07644567" lon="116.27714662">
      <ele>31.7</ele>
      <time>2026-07-07T02:02:32Z</time>
      <extensions><speed_kmh>35.0</speed_kmh></extensions>
    </trkpt>
    <trkpt lat="40.07604353" lon="116.27745208">
      <ele>31.4</ele>
      <time>2026-07-07T02:02:39Z</time>
      <extensions><speed_kmh>34.7</speed_kmh></extensions>
    </trkpt>
    <trkpt lat="40.07563389" lon="116.27775373">
      <ele>31.1</ele>
      <time>2026-07-07T02:02:46Z</time>
      <extensions><speed_kmh>34.8</speed_kmh></extensions>
    </trkpt>
    <trkpt lat="40.07521268" lon="116.27803421">
      <ele>32.0</ele>
      <time>2026-07-07T02:02:52Z</time>
      <extensions><speed_kmh>34.8</speed_kmh></extensions>
    </trkpt>
    <trkpt lat="40.07479286" lon="116.27831589">
      <ele>32.1</ele>
      <time>2026-07-07T02:02:59Z</time>
      <extensions><speed_kmh>34.8</speed_kmh></extensions>
    </trkpt>
    <trkpt lat="40.07437843" lon="116.27860805">
      <ele>32.3</ele>
      <time>2026-07-07T02:03:06Z</time>
      <extensions><speed_kmh>35.0</speed_kmh></extensions>
    </trkpt>
    <trkpt lat="40.07395591" lon="116.27888293">
      <ele>32.4</ele>
      <time>2026-07-07T02:03:13Z</time>
      <extensions><speed_kmh>34.7</speed_kmh></extensions>
    </trkpt>
    <trkpt lat="40.07354138" lon="116.27917189">
      <ele>32.8</ele>
      <time>2026-07-07T02:03:20Z</time>
      <extensions><speed_kmh>34.9</speed_kmh></extensions>
    </trkpt>
    <trkpt lat="40.07312595" lon="116.27945445">
      <ele>33.0</ele>
      <time>2026-07-07T02:03:27Z</time>
      <extensions><speed_kmh>35.0</speed_kmh></extensions>
    </trkpt>
    <trkpt lat="40.07270373" lon="116.27973142">
      <ele>33.3</ele>
      <time>2026-07-07T02:03:34Z</time>
      <extensions><speed_kmh>35.2</speed_kmh></extensions>
    </trkpt>
    <trkpt lat="40.07227242" lon="116.27999491">
      <ele>33.4</ele>
      <time>2026-07-07T02:03:41Z</time>
      <extensions><speed_kmh>35.2</speed_kmh></extensions>
    </trkpt>
    <trkpt lat="40.07184413" lon="116.28024431">
      <ele>33.6</ele>
      <time>2026-07-07T02:03:47Z</time>
      <extensions><speed_kmh>29.0</speed_kmh></extensions>
    </trkpt>
    <trkpt lat="40.07145186" lon="116.28047154">
      <ele>34.2</ele>
      <time>2026-07-07T02:03:54Z</time>
      <extensions><speed_kmh>32.3</speed_kmh></extensions>
    </trkpt>
    <trkpt lat="40.07103878" lon="116.28070825">
      <ele>34.2</ele>
      <time>2026-07-07T02:04:01Z</time>
      <extensions><speed_kmh>31.6</speed_kmh></extensions>
    </trkpt>
    <trkpt lat="40.07056928" lon="116.28096145">
      <ele>34.7</ele>
      <time>2026-07-07T02:04:08Z</time>
      <extensions><speed_kmh>35.1</speed_kmh></extensions>
    </trkpt>
    <trkpt lat="40.07012288" lon="116.28121364">
      <ele>34.5</ele>
      <time>2026-07-07T02:04:15Z</time>
      <extensions><speed_kmh>36.5</speed_kmh></extensions>
    </trkpt>
    <trkpt lat="40.06966887" lon="116.28147132">
      <ele>34.5</ele>
      <time>2026-07-07T02:04:22Z</time>
      <extensions><speed_kmh>37.0</speed_kmh></extensions>
    </trkpt>
    <trkpt lat="40.06936496" lon="116.28164261">
      <ele>34.1</ele>
      <time>2026-07-07T02:04:29Z</time>
      <extensions><speed_kmh>36.5</speed_kmh></extensions>
    </trkpt>
    <trkpt lat="40.06884127" lon="116.28195751">
      <ele>33.7</ele>
      <time>2026-07-07T02:04:36Z</time>
      <extensions><speed_kmh>36.5</speed_kmh></extensions>
    </trkpt>
    <trkpt lat="40.06839398" lon="116.28220041">
      <ele>33.5</ele>
      <time>2026-07-07T02:04:42Z</time>
      <extensions><speed_kmh>35.8</speed_kmh></extensions>
    </trkpt>
    <trkpt lat="40.06795713" lon="116.28247585">
      <ele>33.7</ele>
      <time>2026-07-07T02:04:49Z</time>
      <extensions><speed_kmh>35.9</speed_kmh></extensions>
    </trkpt>
    <trkpt lat="40.06752626" lon="116.28276916">
      <ele>34.1</ele>
      <time>2026-07-07T02:04:56Z</time>
      <extensions><speed_kmh>35.9</speed_kmh></extensions>
    </trkpt>
    <trkpt lat="40.06716698" lon="116.28299407">
      <ele>34.6</ele>
      <time>2026-07-07T02:05:03Z</time>
      <extensions><speed_kmh>36.1</speed_kmh></extensions>
    </trkpt>
    <trkpt lat="40.06665688" lon="116.28331315">
      <ele>34.9</ele>
      <time>2026-07-07T02:05:10Z</time>
      <extensions><speed_kmh>36.4</speed_kmh></extensions>
    </trkpt>
    <trkpt lat="40.06621005" lon="116.28356831">
      <ele>34.9</ele>
      <time>2026-07-07T02:05:17Z</time>
      <extensions><speed_kmh>36.2</speed_kmh></extensions>
    </trkpt>
    <trkpt lat="40.06575893" lon="116.28382198">
      <ele>34.8</ele>
      <time>2026-07-07T02:05:24Z</time>
      <extensions><speed_kmh>36.2</speed_kmh></extensions>
    </trkpt>
    <trkpt lat="40.06530811" lon="116.28407444">
      <ele>34.6</ele>
      <time>2026-07-07T02:05:31Z</time>
      <extensions><speed_kmh>36.3</speed_kmh></extensions>
    </trkpt>
    <trkpt lat="40.06493164" lon="116.28428636">
      <ele>34.5</ele>
      <time>2026-07-07T02:05:37Z</time>
      <extensions><speed_kmh>36.0</speed_kmh></extensions>
    </trkpt>
    <trkpt lat="40.06447883" lon="116.28452694">
      <ele>34.0</ele>
      <time>2026-07-07T02:05:44Z</time>
      <extensions><speed_kmh>35.9</speed_kmh></extensions>
    </trkpt>
    <trkpt lat="40.06403041" lon="116.28477500">
      <ele>33.7</ele>
      <time>2026-07-07T02:05:51Z</time>
      <extensions><speed_kmh>36.2</speed_kmh></extensions>
    </trkpt>
    <trkpt lat="40.06351033" lon="116.28506571">
      <ele>34.4</ele>
      <time>2026-07-07T02:05:58Z</time>
      <extensions><speed_kmh>36.1</speed_kmh></extensions>
    </trkpt>
    <trkpt lat="40.06305681" lon="116.28531077">
      <ele>34.7</ele>
      <time>2026-07-07T02:06:05Z</time>
      <extensions><speed_kmh>36.3</speed_kmh></extensions>
    </trkpt>
    <trkpt lat="40.06265603" lon="116.28552168">
      <ele>34.7</ele>
      <time>2026-07-07T02:06:12Z</time>
      <extensions><speed_kmh>19.3</speed_kmh></extensions>
    </trkpt>
    <trkpt lat="40.06228278" lon="116.28571222">
      <ele>35.3</ele>
      <time>2026-07-07T02:06:19Z</time>
      <extensions><speed_kmh>33.5</speed_kmh></extensions>
    </trkpt>
    <trkpt lat="40.06185464" lon="116.28596267">
      <ele>35.5</ele>
      <time>2026-07-07T02:06:26Z</time>
      <extensions><speed_kmh>35.8</speed_kmh></extensions>
    </trkpt>
    <trkpt lat="40.06140890" lon="116.28622221">
      <ele>35.3</ele>
      <time>2026-07-07T02:06:32Z</time>
      <extensions><speed_kmh>35.7</speed_kmh></extensions>
    </trkpt>
    <trkpt lat="40.06100198" lon="116.28645518">
      <ele>35.8</ele>
      <time>2026-07-07T02:06:39Z</time>
      <extensions><speed_kmh>28.8</speed_kmh></extensions>
    </trkpt>
    <trkpt lat="40.06061370" lon="116.28666758">
      <ele>35.8</ele>
      <time>2026-07-07T02:06:46Z</time>
      <extensions><speed_kmh>22.3</speed_kmh></extensions>
    </trkpt>
    <trkpt lat="40.06023795" lon="116.28685511">
      <ele>35.7</ele>
      <time>2026-07-07T02:06:53Z</time>
      <extensions><speed_kmh>15.1</speed_kmh></extensions>
    </trkpt>
    <trkpt lat="40.05981845" lon="116.28707381">
      <ele>37.1</ele>
      <time>2026-07-07T02:07:00Z</time>
      <extensions><speed_kmh>19.4</speed_kmh></extensions>
    </trkpt>
    <trkpt lat="40.05944208" lon="116.28727182">
      <ele>37.8</ele>
      <time>2026-07-07T02:07:07Z</time>
      <extensions><speed_kmh>34.5</speed_kmh></extensions>
    </trkpt>
    <trkpt lat="40.05900287" lon="116.28750269">
      <ele>37.6</ele>
      <time>2026-07-07T02:07:14Z</time>
      <extensions><speed_kmh>36.0</speed_kmh></extensions>
    </trkpt>
    <trkpt lat="40.05855046" lon="116.28773057">
      <ele>37.1</ele>
      <time>2026-07-07T02:07:20Z</time>
      <extensions><speed_kmh>36.4</speed_kmh></extensions>
    </trkpt>
    <trkpt lat="40.05801289" lon="116.28799549">
      <ele>36.0</ele>
      <time>2026-07-07T02:07:27Z</time>
      <extensions><speed_kmh>36.5</speed_kmh></extensions>
    </trkpt>
    <trkpt lat="40.05755156" lon="116.28823793">
      <ele>36.2</ele>
      <time>2026-07-07T02:07:34Z</time>
      <extensions><speed_kmh>36.7</speed_kmh></extensions>
    </trkpt>
    <trkpt lat="40.05708794" lon="116.28846680">
      <ele>36.1</ele>
      <time>2026-07-07T02:07:41Z</time>
      <extensions><speed_kmh>36.8</speed_kmh></extensions>
    </trkpt>
    <trkpt lat="40.05664618" lon="116.28872562">
      <ele>35.3</ele>
      <time>2026-07-07T02:07:48Z</time>
      <extensions><speed_kmh>35.9</speed_kmh></extensions>
    </trkpt>
    <trkpt lat="40.05635597" lon="116.28920582">
      <ele>35.7</ele>
      <time>2026-07-07T02:07:55Z</time>
      <extensions><speed_kmh>33.8</speed_kmh></extensions>
    </trkpt>
    <trkpt lat="40.05624201" lon="116.28976916">
      <ele>36.7</ele>
      <time>2026-07-07T02:08:02Z</time>
      <extensions><speed_kmh>35.7</speed_kmh></extensions>
    </trkpt>
    <trkpt lat="40.05603374" lon="116.29034837">
      <ele>39.0</ele>
      <time>2026-07-07T02:08:09Z</time>
      <extensions><speed_kmh>36.0</speed_kmh></extensions>
    </trkpt>
    <trkpt lat="40.05564211" lon="116.29070279">
      <ele>38.6</ele>
      <time>2026-07-07T02:08:15Z</time>
      <extensions><speed_kmh>34.6</speed_kmh></extensions>
    </trkpt>
    <trkpt lat="40.05520134" lon="116.29095300">
      <ele>38.4</ele>
      <time>2026-07-07T02:08:22Z</time>
      <extensions><speed_kmh>36.0</speed_kmh></extensions>
    </trkpt>
    <trkpt lat="40.05475714" lon="116.29122786">
      <ele>38.4</ele>
      <time>2026-07-07T02:08:29Z</time>
      <extensions><speed_kmh>36.8</speed_kmh></extensions>
    </trkpt>
    <trkpt lat="40.05432339" lon="116.29152907">
      <ele>37.5</ele>
      <time>2026-07-07T02:08:36Z</time>
      <extensions><speed_kmh>36.4</speed_kmh></extensions>
    </trkpt>
    <trkpt lat="40.05386317" lon="116.29174874">
      <ele>37.2</ele>
      <time>2026-07-07T02:08:43Z</time>
      <extensions><speed_kmh>36.2</speed_kmh></extensions>
    </trkpt>
    <trkpt lat="40.05341354" lon="116.29178473">
      <ele>36.7</ele>
      <time>2026-07-07T02:08:50Z</time>
      <extensions><speed_kmh>34.2</speed_kmh></extensions>
    </trkpt>
    <trkpt lat="40.05308872" lon="116.29142881">
      <ele>35.7</ele>
      <time>2026-07-07T02:08:57Z</time>
      <extensions><speed_kmh>34.1</speed_kmh></extensions>
    </trkpt>
    <trkpt lat="40.05266039" lon="116.29133783">
      <ele>37.1</ele>
      <time>2026-07-07T02:09:04Z</time>
      <extensions><speed_kmh>33.2</speed_kmh></extensions>
    </trkpt>
    <trkpt lat="40.05220407" lon="116.29155799">
      <ele>38.6</ele>
      <time>2026-07-07T02:09:10Z</time>
      <extensions><speed_kmh>35.3</speed_kmh></extensions>
    </trkpt>
    <trkpt lat="40.05179924" lon="116.29177944">
      <ele>38.8</ele>
      <time>2026-07-07T02:09:17Z</time>
      <extensions><speed_kmh>23.3</speed_kmh></extensions>
    </trkpt>
    <trkpt lat="40.05142944" lon="116.29198401">
      <ele>40.0</ele>
      <time>2026-07-07T02:09:24Z</time>
      <extensions><speed_kmh>30.0</speed_kmh></extensions>
    </trkpt>
    <trkpt lat="40.05103212" lon="116.29219618">
      <ele>39.7</ele>
      <time>2026-07-07T02:09:31Z</time>
      <extensions><speed_kmh>29.1</speed_kmh></extensions>
    </trkpt>
    <trkpt lat="40.05061453" lon="116.29239427">
      <ele>38.8</ele>
      <time>2026-07-07T02:09:38Z</time>
      <extensions><speed_kmh>28.1</speed_kmh></extensions>
    </trkpt>
    <trkpt lat="40.05020196" lon="116.29263977">
      <ele>38.1</ele>
      <time>2026-07-07T02:09:45Z</time>
      <extensions><speed_kmh>36.3</speed_kmh></extensions>
    </trkpt>
    <trkpt lat="40.04982115" lon="116.29284993">
      <ele>38.7</ele>
      <time>2026-07-07T02:09:52Z</time>
      <extensions><speed_kmh>37.0</speed_kmh></extensions>
    </trkpt>
    <trkpt lat="40.04937398" lon="116.29309324">
      <ele>39.4</ele>
      <time>2026-07-07T02:09:59Z</time>
      <extensions><speed_kmh>34.8</speed_kmh></extensions>
    </trkpt>
    <trkpt lat="40.04893814" lon="116.29331968">
      <ele>41.6</ele>
      <time>2026-07-07T02:10:05Z</time>
      <extensions><speed_kmh>34.8</speed_kmh></extensions>
    </trkpt>
    <trkpt lat="40.04851110" lon="116.29354930">
      <ele>42.2</ele>
      <time>2026-07-07T02:10:12Z</time>
      <extensions><speed_kmh>34.7</speed_kmh></extensions>
    </trkpt>
    <trkpt lat="40.04808065" lon="116.29378112">
      <ele>42.1</ele>
      <time>2026-07-07T02:10:19Z</time>
      <extensions><speed_kmh>34.7</speed_kmh></extensions>
    </trkpt>
    <trkpt lat="40.04763389" lon="116.29401664">
      <ele>41.9</ele>
      <time>2026-07-07T02:10:26Z</time>
      <extensions><speed_kmh>37.2</speed_kmh></extensions>
    </trkpt>
    <trkpt lat="40.04731533" lon="116.29418846">
      <ele>41.3</ele>
      <time>2026-07-07T02:10:33Z</time>
      <extensions><speed_kmh>38.5</speed_kmh></extensions>
    </trkpt>
    <trkpt lat="40.04691249" lon="116.29440690">
      <ele>40.9</ele>
      <time>2026-07-07T02:10:40Z</time>
      <extensions><speed_kmh>38.7</speed_kmh></extensions>
    </trkpt>
    <trkpt lat="40.04651217" lon="116.29461575">
      <ele>39.3</ele>
      <time>2026-07-07T02:10:47Z</time>
      <extensions><speed_kmh>38.3</speed_kmh></extensions>
    </trkpt>
    <trkpt lat="40.04605211" lon="116.29484937">
      <ele>38.8</ele>
      <time>2026-07-07T02:10:54Z</time>
      <extensions><speed_kmh>36.0</speed_kmh></extensions>
    </trkpt>
    <trkpt lat="40.04562136" lon="116.29513967">
      <ele>38.7</ele>
      <time>2026-07-07T02:11:00Z</time>
      <extensions><speed_kmh>36.5</speed_kmh></extensions>
    </trkpt>
    <trkpt lat="40.04525047" lon="116.29538485">
      <ele>38.5</ele>
      <time>2026-07-07T02:11:07Z</time>
      <extensions><speed_kmh>36.7</speed_kmh></extensions>
    </trkpt>
    <trkpt lat="40.04479255" lon="116.29565439">
      <ele>38.1</ele>
      <time>2026-07-07T02:11:14Z</time>
      <extensions><speed_kmh>36.9</speed_kmh></extensions>
    </trkpt>
    <trkpt lat="40.04434829" lon="116.29594458">
      <ele>37.9</ele>
      <time>2026-07-07T02:11:21Z</time>
      <extensions><speed_kmh>37.2</speed_kmh></extensions>
    </trkpt>
    <trkpt lat="40.04394345" lon="116.29604115">
      <ele>36.9</ele>
      <time>2026-07-07T02:11:28Z</time>
      <extensions><speed_kmh>26.8</speed_kmh></extensions>
    </trkpt>
    <trkpt lat="40.04380468" lon="116.29548853">
      <ele>35.9</ele>
      <time>2026-07-07T02:11:35Z</time>
      <extensions><speed_kmh>31.2</speed_kmh></extensions>
    </trkpt>
    <trkpt lat="40.04365932" lon="116.29492303">
      <ele>35.8</ele>
      <time>2026-07-07T02:11:42Z</time>
      <extensions><speed_kmh>35.8</speed_kmh></extensions>
    </trkpt>
    <trkpt lat="40.04352302" lon="116.29431969">
      <ele>36.3</ele>
      <time>2026-07-07T02:11:49Z</time>
      <extensions><speed_kmh>35.8</speed_kmh></extensions>
    </trkpt>
    <trkpt lat="40.04337710" lon="116.29372033">
      <ele>36.7</ele>
      <time>2026-07-07T02:11:55Z</time>
      <extensions><speed_kmh>35.6</speed_kmh></extensions>
    </trkpt>
    <trkpt lat="40.04318508" lon="116.29324334">
      <ele>36.8</ele>
      <time>2026-07-07T02:12:02Z</time>
      <extensions><speed_kmh>18.7</speed_kmh></extensions>
    </trkpt>
    <trkpt lat="40.04272928" lon="116.29313310">
      <ele>37.1</ele>
      <time>2026-07-07T02:12:09Z</time>
      <extensions><speed_kmh>27.7</speed_kmh></extensions>
    </trkpt>
    <trkpt lat="40.04233593" lon="116.29336372">
      <ele>36.7</ele>
      <time>2026-07-07T02:12:16Z</time>
      <extensions><speed_kmh>35.5</speed_kmh></extensions>
    </trkpt>
    <trkpt lat="40.04189912" lon="116.29363408">
      <ele>36.5</ele>
      <time>2026-07-07T02:12:23Z</time>
      <extensions><speed_kmh>36.9</speed_kmh></extensions>
    </trkpt>
    <trkpt lat="40.04151105" lon="116.29381449">
      <ele>35.9</ele>
      <time>2026-07-07T02:12:30Z</time>
      <extensions><speed_kmh>36.7</speed_kmh></extensions>
    </trkpt>
    <trkpt lat="40.04107935" lon="116.29406996">
      <ele>36.3</ele>
      <time>2026-07-07T02:12:37Z</time>
      <extensions><speed_kmh>24.8</speed_kmh></extensions>
    </trkpt>
    <trkpt lat="40.04103025" lon="116.29401188">
      <ele>39.1</ele>
      <time>2026-07-07T02:12:44Z</time>
      <extensions><speed_kmh>0.0</speed_kmh></extensions>
    </trkpt>
  </trkseg></trk>
</gpx>
